{
"type": "FeatureCollection",
"crs": { "type": "name", "properties": { "name": "urn:ogc:def:crs:OGC:1.3:CRS84" } },
"features": [
{ "type": "Feature", "properties": { "AREA": 0.0, "PERIMETER": 0.0, "RES1_4M_": 1, "RES1_4M_ID": 61, "GBCODE": 31010, "NAME": "北京", "ADCODE93": 110100, "ADCODE99": 110100, "ADCLASS": 1, "PINYIN": "Beijing" }, "geometry": { "type": "Point", "coordinates": [ 116.38094329833984, 39.923614501953125 ] } },
{ "type": "Feature", "properties": { "AREA": 0.0, "PERIMETER": 0.0, "RES1_4M_": 2, "RES1_4M_ID": 70, "GBCODE": 31020, "NAME": "天津", "ADCODE93": 120100, "ADCODE99": 120100, "ADCLASS": 2, "PINYIN": "Tianjin" }, "geometry": { "type": "Point", "coordinates": [ 117.20349884033203, 39.131118774414062 ] } },
{ "type": "Feature", "properties": { "AREA": 0.0, "PERIMETER": 0.0, "RES1_4M_": 3, "RES1_4M_ID": 121, "GBCODE": 31020, "NAME": "石家庄", "ADCODE93": 130101, "ADCODE99": 130101, "ADCLASS": 2, "PINYIN": "Shijiazhuang" }, "geometry": { "type": "Point", "coordinates": [ 114.48977661132812, 38.045127868652344 ] } },
{ "type": "Feature", "properties": { "AREA": 0.0, "PERIMETER": 0.0, "RES1_4M_": 4, "RES1_4M_ID": 220, "GBCODE": 31020, "NAME": "太原", "ADCODE93": 140101, "ADCODE99": 140101, "ADCLASS": 2, "PINYIN": "Taiyuan" }, "geometry": { "type": "Point", "coordinates": [ 112.56935119628906, 37.871112823486328 ] } },
{ "type": "Feature", "properties": { "AREA": 0.0, "PERIMETER": 0.0, "RES1_4M_": 5, "RES1_4M_ID": 322, "GBCODE": 31020, "NAME": "呼和浩特", "ADCODE93": 150101, "ADCODE99": 150101, "ADCLASS": 2, "PINYIN": "Huhehaote" }, "geometry": { "type": "Point", "coordinates": [ 111.66329956054687, 40.820941925048828 ] } },
{ "type": "Feature", "properties": { "AREA": 0.0, "PERIMETER": 0.0, "RES1_4M_": 6, "RES1_4M_ID": 412, "GBCODE": 31020, "NAME": "沈阳", "ADCODE93": 210101, "ADCODE99": 210101, "ADCLASS": 2, "PINYIN": "Shenyang" }, "geometry": { "type": "Point", "coordinates": [ 123.41168212890625, 41.796615600585938 ] } },
{ "type": "Feature", "properties": { "AREA": 0.0, "PERIMETER": 0.0, "RES1_4M_": 7, "RES1_4M_ID": 465, "GBCODE": 31020, "NAME": "长春", "ADCODE93": 220101, "ADCODE99": 220101, "ADCLASS": 2, "PINYIN": "Changchun" }, "geometry": { "type": "Point", "coordinates": [ 125.3154296875, 43.892562866210938 ] } },
{ "type": "Feature", "properties": { "AREA": 0.0, "PERIMETER": 0.0, "RES1_4M_": 8, "RES1_4M_ID": 508, "GBCODE": 31020, "NAME": "哈尔滨", "ADCODE93": 230101, "ADCODE99": 230101, "ADCLASS": 2, "PINYIN": "Haerbin" }, "geometry": { "type": "Point", "coordinates": [ 126.64334106445313, 45.741493225097656 ] } },
{ "type": "Feature", "properties": { "AREA": 0.0, "PERIMETER": 0.0, "RES1_4M_": 9, "RES1_4M_ID": 584, "GBCODE": 31020, "NAME": "上海", "ADCODE93": 310100, "ADCODE99": 310100, "ADCLASS": 2, "PINYIN": "Shanghai" }, "geometry": { "type": "Point", "coordinates": [ 121.46926879882812, 31.238176345825195 ] } },
{ "type": "Feature", "properties": { "AREA": 0.0, "PERIMETER": 0.0, "RES1_4M_": 10, "RES1_4M_ID": 594, "GBCODE": 31020, "NAME": "南京", "ADCODE93": 320101, "ADCODE99": 320101, "ADCLASS": 2, "PINYIN": "Nanjing" }, "geometry": { "type": "Point", "coordinates": [ 118.77278137207031, 32.047615051269531 ] } },
{ "type": "Feature", "properties": { "AREA": 0.0, "PERIMETER": 0.0, "RES1_4M_": 11, "RES1_4M_ID": 668, "GBCODE": 31020, "NAME": "杭州", "ADCODE93": 330101, "ADCODE99": 330101, "ADCLASS": 2, "PINYIN": "Hangzhou" }, "geometry": { "type": "Point", "coordinates": [ 120.15924835205078, 30.265995025634766 ] } },
{ "type": "Feature", "properties": { "AREA": 0.0, "PERIMETER": 0.0, "RES1_4M_": 12, "RES1_4M_ID": 741, "GBCODE": 31020, "NAME": "合肥", "ADCODE93": 340101, "ADCODE99": 340101, "ADCLASS": 2, "PINYIN": "Hefei" }, "geometry": { "type": "Point", "coordinates": [ 117.27570343017578, 31.863254547119141 ] } },
{ "type": "Feature", "properties": { "AREA": 0.0, "PERIMETER": 0.0, "RES1_4M_": 13, "RES1_4M_ID": 823, "GBCODE": 31020, "NAME": "福州", "ADCODE93": 350101, "ADCODE99": 350101, "ADCLASS": 2, "PINYIN": "Fuzhou" }, "geometry": { "type": "Point", "coordinates": [ 119.29781341552734, 26.078590393066406 ] } },
{ "type": "Feature", "properties": { "AREA": 0.0, "PERIMETER": 0.0, "RES1_4M_": 14, "RES1_4M_ID": 898, "GBCODE": 31020, "NAME": "南昌", "ADCODE93": 360101, "ADCODE99": 360101, "ADCLASS": 2, "PINYIN": "Nanchang" }, "geometry": { "type": "Point", "coordinates": [ 115.89991760253906, 28.675991058349609 ] } },
{ "type": "Feature", "properties": { "AREA": 0.0, "PERIMETER": 0.0, "RES1_4M_": 15, "RES1_4M_ID": 981, "GBCODE": 31020, "NAME": "济南", "ADCODE93": 370101, "ADCODE99": 370101, "ADCLASS": 2, "PINYIN": "Jinan" }, "geometry": { "type": "Point", "coordinates": [ 117.00559997558594, 36.667072296142578 ] } },
{ "type": "Feature", "properties": { "AREA": 0.0, "PERIMETER": 0.0, "RES1_4M_": 16, "RES1_4M_ID": 1084, "GBCODE": 31020, "NAME": "郑州", "ADCODE93": 410101, "ADCODE99": 410101, "ADCLASS": 2, "PINYIN": "Zhengzhou" }, "geometry": { "type": "Point", "coordinates": [ 113.65004730224609, 34.757034301757813 ] } },
{ "type": "Feature", "properties": { "AREA": 0.0, "PERIMETER": 0.0, "RES1_4M_": 17, "RES1_4M_ID": 1207, "GBCODE": 31020, "NAME": "武汉", "ADCODE93": 420101, "ADCODE99": 420101, "ADCLASS": 2, "PINYIN": "Wuhan" }, "geometry": { "type": "Point", "coordinates": [ 114.29193878173828, 30.567514419555664 ] } },
{ "type": "Feature", "properties": { "AREA": 0.0, "PERIMETER": 0.0, "RES1_4M_": 18, "RES1_4M_ID": 1344, "GBCODE": 31020, "NAME": "长沙", "ADCODE93": 430101, "ADCODE99": 430101, "ADCLASS": 2, "PINYIN": "Changsha" }, "geometry": { "type": "Point", "coordinates": [ 112.98126983642578, 28.200824737548828 ] } },
{ "type": "Feature", "properties": { "AREA": 0.0, "PERIMETER": 0.0, "RES1_4M_": 19, "RES1_4M_ID": 1403, "GBCODE": 31020, "NAME": "广州", "ADCODE93": 440101, "ADCODE99": 440101, "ADCLASS": 2, "PINYIN": "Guangzhou" }, "geometry": { "type": "Point", "coordinates": [ 113.26142883300781, 23.118911743164063 ] } },
{ "type": "Feature", "properties": { "AREA": 0.0, "PERIMETER": 0.0, "RES1_4M_": 20, "RES1_4M_ID": 1509, "GBCODE": 31020, "NAME": "南宁", "ADCODE93": 450101, "ADCODE99": 450101, "ADCLASS": 2, "PINYIN": "Nanning" }, "geometry": { "type": "Point", "coordinates": [ 108.311767578125, 22.806543350219727 ] } },
{ "type": "Feature", "properties": { "AREA": 0.0, "PERIMETER": 0.0, "RES1_4M_": 21, "RES1_4M_ID": 1580, "GBCODE": 31020, "NAME": "海口", "ADCODE93": 460100, "ADCODE99": 460100, "ADCLASS": 2, "PINYIN": "Haikou" }, "geometry": { "type": "Point", "coordinates": [ 110.34651184082031, 20.031793594360352 ] } },
{ "type": "Feature", "properties": { "AREA": 0.0, "PERIMETER": 0.0, "RES1_4M_": 22, "RES1_4M_ID": 1620, "GBCODE": 31020, "NAME": "成都", "ADCODE93": 510101, "ADCODE99": 510101, "ADCLASS": 2, "PINYIN": "Chengdu" }, "geometry": { "type": "Point", "coordinates": [ 104.08175659179687, 30.661056518554688 ] } },
{ "type": "Feature", "properties": { "AREA": 0.0, "PERIMETER": 0.0, "RES1_4M_": 23, "RES1_4M_ID": 1622, "GBCODE": 31030, "NAME": "重庆", "ADCODE93": 510201, "ADCODE99": 500100, "ADCLASS": 2, "PINYIN": "Chongqing" }, "geometry": { "type": "Point", "coordinates": [ 106.51033782958984, 29.558176040649414 ] } },
{ "type": "Feature", "properties": { "AREA": 0.0, "PERIMETER": 0.0, "RES1_4M_": 24, "RES1_4M_ID": 1838, "GBCODE": 31020, "NAME": "贵阳", "ADCODE93": 520101, "ADCODE99": 520101, "ADCLASS": 2, "PINYIN": "Guiyang" }, "geometry": { "type": "Point", "coordinates": [ 106.71137237548828, 26.576873779296875 ] } },
{ "type": "Feature", "properties": { "AREA": 0.0, "PERIMETER": 0.0, "RES1_4M_": 25, "RES1_4M_ID": 1852, "GBCODE": 31020, "NAME": "昆明", "ADCODE93": 530101, "ADCODE99": 530101, "ADCLASS": 2, "PINYIN": "Kunming" }, "geometry": { "type": "Point", "coordinates": [ 102.70456695556641, 25.043844223022461 ] } },
{ "type": "Feature", "properties": { "AREA": 0.0, "PERIMETER": 0.0, "RES1_4M_": 26, "RES1_4M_ID": 1972, "GBCODE": 31020, "NAME": "拉萨", "ADCODE93": 540101, "ADCODE99": 540101, "ADCLASS": 2, "PINYIN": "Lhasa" }, "geometry": { "type": "Point", "coordinates": [ 91.132049560546875, 29.657588958740234 ] } },
{ "type": "Feature", "properties": { "AREA": 0.0, "PERIMETER": 0.0, "RES1_4M_": 27, "RES1_4M_ID": 2041, "GBCODE": 31020, "NAME": "西安", "ADCODE93": 610101, "ADCODE99": 610101, "ADCLASS": 2, "PINYIN": "Xi'an" }, "geometry": { "type": "Point", "coordinates": [ 108.94902801513672, 34.261684417724609 ] } },
{ "type": "Feature", "properties": { "AREA": 0.0, "PERIMETER": 0.0, "RES1_4M_": 28, "RES1_4M_ID": 2134, "GBCODE": 31020, "NAME": "兰州", "ADCODE93": 620101, "ADCODE99": 620101, "ADCLASS": 2, "PINYIN": "Lanzhou" }, "geometry": { "type": "Point", "coordinates": [ 103.75005340576172, 36.068038940429688 ] } },
{ "type": "Feature", "properties": { "AREA": 0.0, "PERIMETER": 0.0, "RES1_4M_": 29, "RES1_4M_ID": 2213, "GBCODE": 31020, "NAME": "西宁", "ADCODE93": 630100, "ADCODE99": 630100, "ADCLASS": 2, "PINYIN": "Xining" }, "geometry": { "type": "Point", "coordinates": [ 101.78745269775391, 36.609447479248047 ] } },
{ "type": "Feature", "properties": { "AREA": 0.0, "PERIMETER": 0.0, "RES1_4M_": 30, "RES1_4M_ID": 2253, "GBCODE": 31020, "NAME": "银川", "ADCODE93": 640101, "ADCODE99": 640101, "ADCLASS": 2, "PINYIN": "Yinchuan" }, "geometry": { "type": "Point", "coordinates": [ 106.27194213867187, 38.468009948730469 ] } },
{ "type": "Feature", "properties": { "AREA": 0.0, "PERIMETER": 0.0, "RES1_4M_": 31, "RES1_4M_ID": 2274, "GBCODE": 31020, "NAME": "乌鲁木齐", "ADCODE93": 650101, "ADCODE99": 650101, "ADCLASS": 2, "PINYIN": "Wulumuqi" }, "geometry": { "type": "Point", "coordinates": [ 87.606117248535156, 43.790939331054688 ] } },
{ "type": "Feature", "properties": { "AREA": 0.0, "PERIMETER": 0.0, "RES1_4M_": 32, "RES1_4M_ID": 2358, "GBCODE": 31020, "NAME": "台北", "ADCODE93": 710001, "ADCODE99": 710001, "ADCLASS": 2, "PINYIN": "Taipei Shih" }, "geometry": { "type": "Point", "coordinates": [ 121.5142822265625, 25.049127578735352 ] } },
{ "type": "Feature", "properties": { "AREA": 0.0, "PERIMETER": 0.0, "RES1_4M_": 33, "RES1_4M_ID": 1384, "GBCODE": 31030, "NAME": "澳门", "ADCODE93": 820000, "ADCODE99": 820000, "ADCLASS": 9, "PINYIN": "Macao" }, "geometry": { "type": "Point", "coordinates": [ 113.55005645751953, 22.200796127319336 ] } },
{ "type": "Feature", "properties": { "AREA": 0.0, "PERIMETER": 0.0, "RES1_4M_": 34, "RES1_4M_ID": 2377, "GBCODE": 31030, "NAME": "香港", "ADCODE93": 810000, "ADCODE99": 810000, "ADCLASS": 9, "PINYIN": "Hong Kong" }, "geometry": { "type": "Point", "coordinates": [ 114.15440368652344, 22.280685424804688 ] } }
]
}
